LEMUR-1                 
1 40044U 14033AL  22268.48231922  .00001214  00000+0  18289-3 0  9992
2 40044  97.6595  91.6428 0057802 193.8685 166.0940 14.75023968444224
LEMUR-2-XIAOQING        
1 41871U 16062C   22267.90314389  .00038910  00000+0  91375-3 0  9990
2 41871  51.6332 227.2384 0001887 328.6586  31.4286 15.41636661325275
LEMUR-2-SOKOLSKY        
1 41872U 16062D   22268.39382808  .00023980  00000+0  57367-3 0  9990
2 41872  51.6762 235.0616 0003270  76.1974 283.9376 15.41330982325318
LEMUR-2-ANUBHAVTHAKUR   
1 41873U 16062E   22268.47870202  .00006917  00000+0  25510-3 0  9996
2 41873  51.6787 281.6341 0006509 280.8309  79.1938 15.28893761324639
LEMUR-2-WINGO           
1 41874U 16062F   22268.21010504  .00030165  00000+0  74432-3 0  9999
2 41874  51.6466 236.8237 0007354 210.8959 149.1594 15.40243337325182
LEMUR-2-JOBANPUTRA      
1 41991U 17008AV  22268.10548874  .00021781  00000+0  64094-3 0  9991
2 41991  97.2503 327.7425 0005314 225.7103 134.3705 15.35075921311450
LEMUR-2-SPIRE-MINIONS   
1 41992U 17008AW  22268.17014973  .00027423  00000+0  70239-3 0  9994
2 41992  97.2584 332.6749 0004610 208.5840 151.5154 15.39348856311733
LEMUR-2-SATCHMO         
1 41993U 17008AX  22268.15045360  .00017151  00000+0  52755-3 0  9997
2 41993  97.2518 328.2027 0004857 225.8875 134.1968 15.33723503311486
LEMUR-2-SMITA-SHARAD    
1 41994U 17008AY  22268.15768676  .00027755  00000+0  71208-3 0  9995
2 41994  97.2579 332.4237 0004744 209.6293 150.4684 15.39294770311721
LEMUR-2-RDEATON         
1 41995U 17008AZ  22268.12281237  .00016729  00000+0  51655-3 0  9999
2 41995  97.2544 328.4089 0005369 243.8390 116.2301 15.33604851312160
LEMUR-2-TACHIKOMA       
1 41996U 17008BA  22268.12671595  .00022509  00000+0  58882-3 0  9992
2 41996  97.2621 332.6366 0004738 231.6593 128.4228 15.38738867311590
LEMUR-2-NOGUECORREIG    
1 41997U 17008BB  22268.12426790  .00030907  00000+0  78780-3 0  9998
2 41997  97.2600 333.1491 0005035 228.2484 131.8332 15.39471120311732
LEMUR-2-MIA-GRACE       
1 41998U 17008BC  22268.13127556  .00016897  00000+0  52473-3 0  9991
2 41998  97.2523 327.9815 0005242 245.7180 114.3515 15.33421085311384
LEMUR-2-ANGELA          
1 42752U 17019B   22267.83328755  .00035441  00000+0  71198-3 0  9993
2 42752  51.6324 113.1964 0005554  69.5531 290.6052 15.46294732296538
LEMUR-2-JENNYBARNA      
1 42753U 17019C   22268.18235924  .00088610  00000+0  10208-2 0  9998
2 42753  51.6256  78.4206 0001489  73.6585 286.4572 15.61214586296988
LEMUR-2-ROBMOORE        
1 42754U 17019D   22267.79428313  .00029021  00000+0  60481-3 0  9991
2 42754  51.6328 115.1377 0004907  73.4507 286.7018 15.45326135296486
LEMUR-2-SPIROVISION     
1 42755U 17019E   22267.72171735  .00072299  00000+0  86991-3 0  9997
2 42755  51.6293  81.7588 0002054 104.8508 350.6940 15.60166656296810
LEMUR-2-SHAINAJOHL      
1 42771U 17036G   22268.05741759  .00020378  00000+0  64211-3 0  9992
2 42771  97.1932 306.8687 0009409 327.7699  32.2967 15.32886907292233
LEMUR-2-XUENITERENCE    
1 42772U 17036H   22268.05368652  .00025958  00000+0  77211-3 0  9993
2 42772  97.1845 307.0708 0008611 323.3973  36.6682 15.34677897292280
LEMUR-2-LUCYBRYCE       
1 42773U 17036J   22268.08039930  .00020792  00000+0  70840-3 0  9993
2 42773  97.1962 306.9367 0009839 329.8394  30.2280 15.30361405292196
LEMUR-2-KUNGFOO         
1 42774U 17036K   22268.36569495  .00018942  00000+0  59048-3 0  9990
2 42774  97.1923 307.6379 0008791 324.2119  35.8533 15.33250027292300
LEMUR-2-LYNSEY-SYMO     
1 42779U 17036Q   22268.07216350  .00024751  00000+0  69515-3 0  9997
2 42779  97.1951 312.1406 0006642 324.7886  35.2919 15.36504898292524
LEMUR-2-LISASAURUS      
1 42780U 17036R   22268.07387928  .00025686  00000+0  80149-3 0  9993
2 42780  97.1953 308.5147 0007869 337.0846  23.0045 15.33166453292303
LEMUR-2-SAM-AMELIA      
1 42781U 17036S   22268.07175537  .00011459  00000+0  38754-3 0  9993
2 42781  97.1960 309.1161 0008656 335.7877  24.2957 15.30742377292317
LEMUR-2-MCPEAKE         
1 42782U 17036T   22268.08089304  .00017613  00000+0  53649-3 0  9999
2 42782  97.1938 310.2791 0007142 331.0923  28.9924 15.34014247292424
LEMUR-2-GREENBERG       
1 42837U 17042N   22268.47026595  .00003058  00000+0  29112-3 0  9999
2 42837  97.4167 120.5593 0013382  29.0131 331.1831 14.94029840283204
LEMUR-2-ANDIS           
1 42838U 17042P   22268.53298468  .00003069  00000+0  29202-3 0  9999
2 42838  97.4150 120.5524 0013414  28.3468 331.8480 14.94052020283216
LEMUR-2-MONSON          
1 42839U 17042Q   22268.50009723  .00002140  00000+0  20626-3 0  9991
2 42839  97.4165 120.2685 0013250  28.6435 331.5511 14.93829621283189
LEMUR-2-FURIAUS         
1 42840U 17042R   22268.49970404  .00002211  00000+0  21510-3 0  9996
2 42840  97.4202 120.6267 0013626  29.2897 330.9085 14.93425189283189
LEMUR-2-PETERG          
1 42841U 17042S   22268.51656601  .00001231  00000+0  12058-3 0  9998
2 42841  97.4227 121.7839 0013005  24.7858 335.3985 14.93901082283259
LEMUR-2-DEMBITZ         
1 42842U 17042T   22268.48265689  .00003195  00000+0  30228-3 0  9997
2 42842  97.4198 121.6210 0013065  26.4766 333.7120 14.94259517283255
LEMUR-2-ZACHARY         
1 42845U 17042W   22268.50732276  .00002834  00000+0  26382-3 0  9999
2 42845  97.4082 120.7921 0013117  25.8161 334.3712 14.94972518283302
LEMUR-2-MCCAFFERTY      
1 43123U 18004N   22268.19298064  .00029385  00000+0  74857-3 0  9995
2 43123  97.3715 347.9880 0005722 356.7593   3.3614 15.39497242261901
LEMUR-2-PETERWEBSTER    
1 43124U 18004P   22268.18898833  .00029035  00000+0  75781-3 0  9994
2 43124  97.3711 347.5638 0005786 358.0097   2.1125 15.38754034261873
LEMUR-2-BROWNCOW        
1 43125U 18004Q   22268.47076237  .00028273  00000+0  68077-3 0  9996
2 43125  97.3767 349.8362 0005165 348.8943  11.2189 15.41224205262027
LEMUR-2-DAVEWILSON      
1 43126U 18004R   22268.17788393  .00035758  00000+0  84877-3 0  9999
2 43126  97.3752 349.3747 0005300 350.5490   9.5656 15.41607496261971
LEMUR-2-MARSHALL        
1 43165U 18010C   22268.22410877  .00022369  00000+0  71982-3 0  9991
2 43165  82.9147 331.4945 0023601 339.1013  20.9262 15.31822124259740
LEMUR-2-TALLHAMN-ATC    
1 43167U 18010E   22268.25464607  .00014199  00000+0  51920-3 0  9998
2 43167  82.9197 338.0648 0019632   6.4284 353.7204 15.27764882259343
LEMUR-2-JIN-LUEN        
1 43182U 18014C   22268.29239894  .00004174  00000+0  34204-3 0  9999
2 43182  97.6391 170.2190 0012803 342.0613  18.0157 14.99752402253856
LEMUR-2-URAMCHANSOL     
1 43183U 18014D   22268.37070306  .00004422  00000+0  36171-3 0  9991
2 43183  97.6385 170.5233 0014417 332.2969  27.7485 14.99774669253871
LEMUR-2-KADI            
1 43184U 18014E   22268.29952606  .00003471  00000+0  28873-3 0  9998
2 43184  97.6388 170.2892 0013001 336.8230  23.2406 14.99283378253856
LEMUR-2-THENICKMOLO     
1 43185U 18014F   22268.25777215  .00004578  00000+0  37725-3 0  9991
2 43185  97.6368 170.4994 0012447 325.5945  34.4472 14.99488880253853
LEMUR-2-VU              
1 43558U 18046E   22268.50882282  .00050946  00000+0  79028-3 0  9991
2 43558  51.6370  30.6574 0006481  30.1469 329.9893 15.53460484235065
LEMUR-2-ALEXANDER       
1 43559U 18046F   22268.51185327  .00070711  00000+0  10067-2 0  9998
2 43559  51.6384  27.7154 0005126  38.1281 322.0073 15.55678275234881
LEMUR-2-YUASA           
1 43560U 18046G   22268.51221927  .00063905  00000+0  95142-3 0  9992
2 43560  51.6390  30.6911 0004399  52.7357 307.4034 15.54505272235061
LEMUR-2-TOMHENDERSON    
1 43561U 18046H   22268.52335225  .00045929  00000+0  77645-3 0  9995
2 43561  51.6396  35.2188 0005009  50.9596 309.1838 15.51117889234564
LEMUR-2-ZUPANSKI        
1 43695U 18088F   22268.39825183  .00016913  00000+0  56274-3 0  9997
2 43695  85.0254 246.6042 0015767 119.3999 240.8824 15.30906984215184
LEMUR-2-CHANUSIAK       
1 43697U 18088H   22268.41940258  .00022977  00000+0  73189-3 0  9994
2 43697  85.0314 246.5795 0015661 101.5681 258.7326 15.32307047215318
LEMUR-2-ORZULAK         
1 43731U 18096N   22268.49270573  .00052938  00000+0  91708-3 0  9993
2 43731  97.3608 355.0658 0010509  40.8503 319.3535 15.50682552213712
LEMUR-2-KOBYSZCZE       
1 43732U 18096P   22268.21298711  .00056972  00000+0  97263-3 0  9992
2 43732  97.3619 355.2840 0010481  44.3183 315.8907 15.51078390213693
LEMUR-2-DULY            
1 43745U 18096AC  22268.23894491  .00051010  00000+0  94310-3 0  9993
2 43745  97.3614 354.8211 0012150  43.6233 316.5976 15.48816593213686
LEMUR-2-VLADIMIR        
1 43746U 18096AD  22268.21586161  .00071758  00000+0  11082-2 0  9999
2 43746  97.3607 355.8823 0008569  38.1946 321.9913 15.53837924213776
LEMUR-2-CHRISTINAHOLT   
1 43882U 18111G   22268.33168291  .00004947  00000+0  40182-3 0  9991
2 43882  97.6606 174.4545 0009408 326.8199  33.2434 15.00031588204736
LEMUR-2-TINYKEV         
1 43883U 18111H   22268.45330535  .00005767  00000+0  46342-3 0  9992
2 43883  97.6619 174.7934 0010995 319.5173  40.5232 15.00366161204768
LEMUR-2-REMY-COLTON     
1 43884U 18111J   22268.53709804  .00005401  00000+0  43333-3 0  9993
2 43884  97.6616 175.4011 0006192  37.4448 322.7206 15.00485131202803
LEMUR-2-GUSTAVO         
1 43885U 18111K   22268.25599166  .00004548  00000+0  36923-3 0  9999
2 43885  97.6637 174.7527 0012219 329.1024  30.9480 15.00069969204732
LEMUR-2-ZO              
1 43886U 18111L   22268.30964567  .00005063  00000+0  40897-3 0  9995
2 43886  97.6713 175.0967 0014670 346.6289  13.4544 15.00185939204755
LEMUR-2-NATALIEMURRAY   
1 43887U 18111M   22268.26450699  .00005085  00000+0  41025-3 0  9995
2 43887  97.6637 175.3708 0007211 306.8044  53.2517 15.00293558204767
LEMUR-2-SARAHBETTYBOO   
1 43888U 18111N   22268.29015856  .00005721  00000+0  45963-3 0  9993
2 43888  97.6670 175.6305 0013671  15.8655 344.2995 15.00348581204774
LEMUR-2-DAISY-HARPER    
1 43889U 18111P   22268.28729681  .00005728  00000+0  45979-3 0  9995
2 43889  97.6665 175.8263 0013112  20.1611 340.0128 15.00390837204778
